[{"OBJECT_NAME":"CORVUS BC4","OBJECT_ID":"2018-099K","EPOCH":"2026-03-09T15:49:18.108768","MEAN_MOTION":15.1161571,"ECCENTRICITY":0.00080458,"INCLINATION":97.4206,"RA_OF_ASC_NODE":114.5457,"ARG_OF_PERICENTER":356.5821,"MEAN_ANOMALY":3.5354,"EPHEMERIS_TYPE":0,"CLASSIFICATION_TYPE":"U","NORAD_CAT_ID":43767,"ELEMENT_SET_NO":999,"REV_AT_EPOCH":39736,"BSTAR":0.00033979895,"MEAN_MOTION_DOT":5.714e-5,"MEAN_MOTION_DDOT":0},{"OBJECT_NAME":"STARLINK-4687","OBJECT_ID":"2022-111M","EPOCH":"2026-03-09T21:00:21.609504","MEAN_MOTION":15.08832094,"ECCENTRICITY":0.00012401,"INCLINATION":53.217,"RA_OF_ASC_NODE":273.326,"ARG_OF_PERICENTER":81.8434,"MEAN_ANOMALY":278.2699,"EPHEMERIS_TYPE":0,"CLASSIFICATION_TYPE":"U","NORAD_CAT_ID":53784,"ELEMENT_SET_NO":999,"REV_AT_EPOCH":19372,"BSTAR":2.9043371e-5,"MEAN_MOTION_DOT":1.74e-6,"MEAN_MOTION_DDOT":0}]
